[{"OBJECT_NAME":"NINGXIA-1 6","OBJECT_ID":"2021-064A","EPOCH":"2026-03-09T23:21:54.693216","MEAN_MOTION":14.08518402,"ECCENTRICITY":0.00071764,"INCLINATION":45.0011,"RA_OF_ASC_NODE":315.3156,"ARG_OF_PERICENTER":113.7517,"MEAN_ANOMALY":246.4073,"EPHEMERIS_TYPE":0,"CLASSIFICATION_TYPE":"U","NORAD_CAT_ID":49018,"ELEMENT_SET_NO":999,"REV_AT_EPOCH":24022,"BSTAR":4.145978e-5,"MEAN_MOTION_DOT":-6.0e-7,"MEAN_MOTION_DDOT":0},{"OBJECT_NAME":"CZ-6A DEB","OBJECT_ID":"2024-140ACA","EPOCH":"2026-03-08T00:57:12.984768","MEAN_MOTION":14.24934766,"ECCENTRICITY":0.01915119,"INCLINATION":88.9886,"RA_OF_ASC_NODE":285.5832,"ARG_OF_PERICENTER":69.573,"MEAN_ANOMALY":292.5913,"EPHEMERIS_TYPE":0,"CLASSIFICATION_TYPE":"U","NORAD_CAT_ID":61810,"ELEMENT_SET_NO":999,"REV_AT_EPOCH":7821,"BSTAR":0.0024947251,"MEAN_MOTION_DOT":7.078e-5,"MEAN_MOTION_DDOT":0}]
